IRIDIUM 57 [-]          
1 25273U 98019B   23300.21599005  .00000584  00000+0  19845-3 0  9991
2 25273  86.4006  36.0706 0002143  92.8503 267.2939 14.34956593339073
IRIDIUM 63 [-]          
1 25286U 98021B   23299.83707383  .00000504  00000+0  16864-3 0  9993
2 25286  86.3986 333.1979 0002388  89.2469 270.9001 14.35459897337837
IRIDIUM 69 [-]          
1 25319U 98026A   23299.68470127  .00000578  00000+0  17860-3 0  9999
2 25319  86.4014 348.3225 0002683 146.5302 213.6067 14.39633878336775
IRIDIUM 71 [-]          
1 25320U 98026B   23299.66780261  .00000516  00000+0  15783-3 0  9996
2 25320  86.3998 343.1577 0000346 159.7455 200.3758 14.39967120337286
IRIDIUM 73 [-]          
1 25344U 98032C   23299.71982095  .00000707  00000+0  17704-3 0  9991
2 25344  86.4370 300.9359 0002041 106.4815 253.6614 14.50087693343649
IRIDIUM 82 [-]          
1 25467U 98051A   23299.75495571  .00010804  00000+0  63002-3 0  9991
2 25467  86.3994  36.0367 0145386 358.0612   2.0037 15.03234454333194
IRIDIUM 2 [-]           
1 25527U 98066A   23299.93519098  .00046994  00000+0  10594-2 0  9991
2 25527  85.5151  91.2243 0005011 139.7211 220.4415 15.43049315370935
