<?xml version="1.0" encoding="UTF-8"?>
<ndm xmlns:xsi="http://www.w3.org/2001/XMLSchema-instance" xsi:noNamespaceSchemaLocation="https://sanaregistry.org/r/ndmxml_unqualified/ndmxml-2.0.0-master-2.0.xsd">
<omm id="CCSDS_OMM_VERS" version="2.0">
<header><CREATION_DATE/><ORIGINATOR/></header><body><segment><metadata><OBJECT_NAME>IRIDIUM 57 [-]</OBJECT_NAME><OBJECT_ID>1998-019B</OBJECT_ID><CENTER_NAME>EARTH</CENTER_NAME><REF_FRAME>TEME</REF_FRAME><TIME_SYSTEM>UTC</TIME_SYSTEM><MEAN_ELEMENT_THEORY>SGP4</MEAN_ELEMENT_THEORY></metadata><data><meanElements><EPOCH>2023-10-27T05:11:01.540320</EPOCH><MEAN_MOTION>14.34956593</MEAN_MOTION><ECCENTRICITY>.0002143</ECCENTRICITY><INCLINATION>86.4006</INCLINATION><RA_OF_ASC_NODE>36.0706</RA_OF_ASC_NODE><ARG_OF_PERICENTER>92.8503</ARG_OF_PERICENTER><MEAN_ANOMALY>267.2939</MEAN_ANOMALY></meanElements><tleParameters><EPHEMERIS_TYPE>0</EPHEMERIS_TYPE><CLASSIFICATION_TYPE>U</CLASSIFICATION_TYPE><NORAD_CAT_ID>25273</NORAD_CAT_ID><ELEMENT_SET_NO>999</ELEMENT_SET_NO><REV_AT_EPOCH>33907</REV_AT_EPOCH><BSTAR>.19845E-3</BSTAR><MEAN_MOTION_DOT>.584E-5</MEAN_MOTION_DOT><MEAN_MOTION_DDOT>0</MEAN_MOTION_DDOT></tleParameters></data></segment></body></omm>
<omm id="CCSDS_OMM_VERS" version="2.0">
<header><CREATION_DATE/><ORIGINATOR/></header><body><segment><metadata><OBJECT_NAME>IRIDIUM 63 [-]</OBJECT_NAME><OBJECT_ID>1998-021B</OBJECT_ID><CENTER_NAME>EARTH</CENTER_NAME><REF_FRAME>TEME</REF_FRAME><TIME_SYSTEM>UTC</TIME_SYSTEM><MEAN_ELEMENT_THEORY>SGP4</MEAN_ELEMENT_THEORY></metadata><data><meanElements><EPOCH>2023-10-26T20:05:23.178912</EPOCH><MEAN_MOTION>14.35459897</MEAN_MOTION><ECCENTRICITY>.0002388</ECCENTRICITY><INCLINATION>86.3986</INCLINATION><RA_OF_ASC_NODE>333.1979</RA_OF_ASC_NODE><ARG_OF_PERICENTER>89.2469</ARG_OF_PERICENTER><MEAN_ANOMALY>270.9001</MEAN_ANOMALY></meanElements><tleParameters><EPHEMERIS_TYPE>0</EPHEMERIS_TYPE><CLASSIFICATION_TYPE>U</CLASSIFICATION_TYPE><NORAD_CAT_ID>25286</NORAD_CAT_ID><ELEMENT_SET_NO>999</ELEMENT_SET_NO><REV_AT_EPOCH>33783</REV_AT_EPOCH><BSTAR>.16864E-3</BSTAR><MEAN_MOTION_DOT>.504E-5</MEAN_MOTION_DOT><MEAN_MOTION_DDOT>0</MEAN_MOTION_DDOT></tleParameters></data></segment></body></omm>
<omm id="CCSDS_OMM_VERS" version="2.0">
<header><CREATION_DATE/><ORIGINATOR/></header><body><segment><metadata><OBJECT_NAME>IRIDIUM 69 [-]</OBJECT_NAME><OBJECT_ID>1998-026A</OBJECT_ID><CENTER_NAME>EARTH</CENTER_NAME><REF_FRAME>TEME</REF_FRAME><TIME_SYSTEM>UTC</TIME_SYSTEM><MEAN_ELEMENT_THEORY>SGP4</MEAN_ELEMENT_THEORY></metadata><data><meanElements><EPOCH>2023-10-26T16:25:58.189728</EPOCH><MEAN_MOTION>14.39633878</MEAN_MOTION><ECCENTRICITY>.0002683</ECCENTRICITY><INCLINATION>86.4014</INCLINATION><RA_OF_ASC_NODE>348.3225</RA_OF_ASC_NODE><ARG_OF_PERICENTER>146.5302</ARG_OF_PERICENTER><MEAN_ANOMALY>213.6067</MEAN_ANOMALY></meanElements><tleParameters><EPHEMERIS_TYPE>0</EPHEMERIS_TYPE><CLASSIFICATION_TYPE>U</CLASSIFICATION_TYPE><NORAD_CAT_ID>25319</NORAD_CAT_ID><ELEMENT_SET_NO>999</ELEMENT_SET_NO><REV_AT_EPOCH>33677</REV_AT_EPOCH><BSTAR>.1786E-3</BSTAR><MEAN_MOTION_DOT>.578E-5</MEAN_MOTION_DOT><MEAN_MOTION_DDOT>0</MEAN_MOTION_DDOT></tleParameters></data></segment></body></omm>
<omm id="CCSDS_OMM_VERS" version="2.0">
<header><CREATION_DATE/><ORIGINATOR/></header><body><segment><metadata><OBJECT_NAME>IRIDIUM 71 [-]</OBJECT_NAME><OBJECT_ID>1998-026B</OBJECT_ID><CENTER_NAME>EARTH</CENTER_NAME><REF_FRAME>TEME</REF_FRAME><TIME_SYSTEM>UTC</TIME_SYSTEM><MEAN_ELEMENT_THEORY>SGP4</MEAN_ELEMENT_THEORY></metadata><data><meanElements><EPOCH>2023-10-26T16:01:38.145504</EPOCH><MEAN_MOTION>14.39967120</MEAN_MOTION><ECCENTRICITY>.0000346</ECCENTRICITY><INCLINATION>86.3998</INCLINATION><RA_OF_ASC_NODE>343.1577</RA_OF_ASC_NODE><ARG_OF_PERICENTER>159.7455</ARG_OF_PERICENTER><MEAN_ANOMALY>200.3758</MEAN_ANOMALY></meanElements><tleParameters><EPHEMERIS_TYPE>0</EPHEMERIS_TYPE><CLASSIFICATION_TYPE>U</CLASSIFICATION_TYPE><NORAD_CAT_ID>25320</NORAD_CAT_ID><ELEMENT_SET_NO>999</ELEMENT_SET_NO><REV_AT_EPOCH>33728</REV_AT_EPOCH><BSTAR>.15783E-3</BSTAR><MEAN_MOTION_DOT>.516E-5</MEAN_MOTION_DOT><MEAN_MOTION_DDOT>0</MEAN_MOTION_DDOT></tleParameters></data></segment></body></omm>
<omm id="CCSDS_OMM_VERS" version="2.0">
<header><CREATION_DATE/><ORIGINATOR/></header><body><segment><metadata><OBJECT_NAME>IRIDIUM 73 [-]</OBJECT_NAME><OBJECT_ID>1998-032C</OBJECT_ID><CENTER_NAME>EARTH</CENTER_NAME><REF_FRAME>TEME</REF_FRAME><TIME_SYSTEM>UTC</TIME_SYSTEM><MEAN_ELEMENT_THEORY>SGP4</MEAN_ELEMENT_THEORY></metadata><data><meanElements><EPOCH>2023-10-26T17:16:32.530080</EPOCH><MEAN_MOTION>14.50087693</MEAN_MOTION><ECCENTRICITY>.0002041</ECCENTRICITY><INCLINATION>86.4370</INCLINATION><RA_OF_ASC_NODE>300.9359</RA_OF_ASC_NODE><ARG_OF_PERICENTER>106.4815</ARG_OF_PERICENTER><MEAN_ANOMALY>253.6614</MEAN_ANOMALY></meanElements><tleParameters><EPHEMERIS_TYPE>0</EPHEMERIS_TYPE><CLASSIFICATION_TYPE>U</CLASSIFICATION_TYPE><NORAD_CAT_ID>25344</NORAD_CAT_ID><ELEMENT_SET_NO>999</ELEMENT_SET_NO><REV_AT_EPOCH>34364</REV_AT_EPOCH><BSTAR>.17704E-3</BSTAR><MEAN_MOTION_DOT>.707E-5</MEAN_MOTION_DOT><MEAN_MOTION_DDOT>0</MEAN_MOTION_DDOT></tleParameters></data></segment></body></omm>
<omm id="CCSDS_OMM_VERS" version="2.0">
<header><CREATION_DATE/><ORIGINATOR/></header><body><segment><metadata><OBJECT_NAME>IRIDIUM 82 [-]</OBJECT_NAME><OBJECT_ID>1998-051A</OBJECT_ID><CENTER_NAME>EARTH</CENTER_NAME><REF_FRAME>TEME</REF_FRAME><TIME_SYSTEM>UTC</TIME_SYSTEM><MEAN_ELEMENT_THEORY>SGP4</MEAN_ELEMENT_THEORY></metadata><data><meanElements><EPOCH>2023-10-26T18:07:08.173344</EPOCH><MEAN_MOTION>15.03234454</MEAN_MOTION><ECCENTRICITY>.0145386</ECCENTRICITY><INCLINATION>86.3994</INCLINATION><RA_OF_ASC_NODE>36.0367</RA_OF_ASC_NODE><ARG_OF_PERICENTER>358.0612</ARG_OF_PERICENTER><MEAN_ANOMALY>2.0037</MEAN_ANOMALY></meanElements><tleParameters><EPHEMERIS_TYPE>0</EPHEMERIS_TYPE><CLASSIFICATION_TYPE>U</CLASSIFICATION_TYPE><NORAD_CAT_ID>25467</NORAD_CAT_ID><ELEMENT_SET_NO>999</ELEMENT_SET_NO><REV_AT_EPOCH>33319</REV_AT_EPOCH><BSTAR>.63002E-3</BSTAR><MEAN_MOTION_DOT>.10804E-3</MEAN_MOTION_DOT><MEAN_MOTION_DDOT>0</MEAN_MOTION_DDOT></tleParameters></data></segment></body></omm>
<omm id="CCSDS_OMM_VERS" version="2.0">
<header><CREATION_DATE/><ORIGINATOR/></header><body><segment><metadata><OBJECT_NAME>IRIDIUM 2 [-]</OBJECT_NAME><OBJECT_ID>1998-066A</OBJECT_ID><CENTER_NAME>EARTH</CENTER_NAME><REF_FRAME>TEME</REF_FRAME><TIME_SYSTEM>UTC</TIME_SYSTEM><MEAN_ELEMENT_THEORY>SGP4</MEAN_ELEMENT_THEORY></metadata><data><meanElements><EPOCH>2023-10-26T22:26:40.500672</EPOCH><MEAN_MOTION>15.43049315</MEAN_MOTION><ECCENTRICITY>.0005011</ECCENTRICITY><INCLINATION>85.5151</INCLINATION><RA_OF_ASC_NODE>91.2243</RA_OF_ASC_NODE><ARG_OF_PERICENTER>139.7211</ARG_OF_PERICENTER><MEAN_ANOMALY>220.4415</MEAN_ANOMALY></meanElements><tleParameters><EPHEMERIS_TYPE>0</EPHEMERIS_TYPE><CLASSIFICATION_TYPE>U</CLASSIFICATION_TYPE><NORAD_CAT_ID>25527</NORAD_CAT_ID><ELEMENT_SET_NO>999</ELEMENT_SET_NO><REV_AT_EPOCH>37093</REV_AT_EPOCH><BSTAR>.10594E-2</BSTAR><MEAN_MOTION_DOT>.46994E-3</MEAN_MOTION_DOT><MEAN_MOTION_DDOT>0</MEAN_MOTION_DDOT></tleParameters></data></segment></body></omm>
</ndm>
